ADRAS-J                 
1 58992U 24034A   24250.05693163  .00009698  00000+0  87288-3 0  9999
2 58992  98.2201 226.8371 0044358 140.9222 219.5215 14.95088989 29940
